{
  "type": "FeatureCollection",
  "name": "Aethera fictional services",
  "metadata": {
    "coordinate_notice": "Deliberately synthetic coordinates; not real-world service locations"
  },
  "features": [
    {
      "type": "Feature",
      "id": "SRV_AE_001",
      "geometry": {
        "type": "Point",
        "coordinates": [
          -72.5,
          -18.7
        ]
      },
      "properties": {
        "service_id": "SRV_AE_001",
        "name": "Espacio Brújula Orientación",
        "service_type": "counseling",
        "district_id": "DIST_GAIA",
        "schedule": "Mon-Fri 09:00-18:00",
        "capacity": 42,
        "channels": [
          "in_person",
          "digital"
        ],
        "eligibility": "Aethera students; fictional orientation service",
        "referral_information": "student_id, preferred channel, non-clinical reason code"
      }
    },
    {
      "type": "Feature",
      "id": "SRV_AE_002",
      "geometry": {
        "type": "Point",
        "coordinates": [
          -72.475,
          -18.68
        ]
      },
      "properties": {
        "service_id": "SRV_AE_002",
        "name": "Espacio Brújula Pares",
        "service_type": "peer_support",
        "district_id": "DIST_GAIA",
        "schedule": "Mon-Sat 12:00-20:00",
        "capacity": 55,
        "channels": [
          "in_person",
          "phone"
        ],
        "eligibility": "Aethera students; fictional orientation service",
        "referral_information": "student_id, preferred channel, non-clinical reason code"
      }
    },
    {
      "type": "Feature",
      "id": "SRV_AE_003",
      "geometry": {
        "type": "Point",
        "coordinates": [
          -72.45,
          -18.66
        ]
      },
      "properties": {
        "service_id": "SRV_AE_003",
        "name": "Espacio Brújula Trayectoria",
        "service_type": "career_guidance",
        "district_id": "DIST_GAIA",
        "schedule": "Mon-Fri 09:00-18:00",
        "capacity": 68,
        "channels": [
          "in_person",
          "digital"
        ],
        "eligibility": "Aethera students; fictional orientation service",
        "referral_information": "student_id, preferred channel, non-clinical reason code"
      }
    },
    {
      "type": "Feature",
      "id": "SRV_AE_004",
      "geometry": {
        "type": "Point",
        "coordinates": [
          -72.33,
          -18.59
        ]
      },
      "properties": {
        "service_id": "SRV_AE_004",
        "name": "Espacio Lumen Orientación",
        "service_type": "counseling",
        "district_id": "DIST_NEBULA",
        "schedule": "Mon-Fri 09:00-18:00",
        "capacity": 53,
        "channels": [
          "in_person",
          "digital"
        ],
        "eligibility": "Aethera students; fictional orientation service",
        "referral_information": "student_id, preferred channel, non-clinical reason code"
      }
    },
    {
      "type": "Feature",
      "id": "SRV_AE_005",
      "geometry": {
        "type": "Point",
        "coordinates": [
          -72.30499999999999,
          -18.57
        ]
      },
      "properties": {
        "service_id": "SRV_AE_005",
        "name": "Espacio Lumen Pares",
        "service_type": "peer_support",
        "district_id": "DIST_NEBULA",
        "schedule": "Mon-Sat 12:00-20:00",
        "capacity": 66,
        "channels": [
          "in_person",
          "phone"
        ],
        "eligibility": "Aethera students; fictional orientation service",
        "referral_information": "student_id, preferred channel, non-clinical reason code"
      }
    },
    {
      "type": "Feature",
      "id": "SRV_AE_006",
      "geometry": {
        "type": "Point",
        "coordinates": [
          -72.28,
          -18.55
        ]
      },
      "properties": {
        "service_id": "SRV_AE_006",
        "name": "Espacio Lumen Trayectoria",
        "service_type": "career_guidance",
        "district_id": "DIST_NEBULA",
        "schedule": "Mon-Fri 09:00-18:00",
        "capacity": 79,
        "channels": [
          "in_person",
          "digital"
        ],
        "eligibility": "Aethera students; fictional orientation service",
        "referral_information": "student_id, preferred channel, non-clinical reason code"
      }
    },
    {
      "type": "Feature",
      "id": "SRV_AE_007",
      "geometry": {
        "type": "Point",
        "coordinates": [
          -72.16,
          -18.48
        ]
      },
      "properties": {
        "service_id": "SRV_AE_007",
        "name": "Espacio Trama Orientación",
        "service_type": "counseling",
        "district_id": "DIST_VECTOR",
        "schedule": "Mon-Fri 09:00-18:00",
        "capacity": 64,
        "channels": [
          "in_person",
          "digital"
        ],
        "eligibility": "Aethera students; fictional orientation service",
        "referral_information": "student_id, preferred channel, non-clinical reason code"
      }
    },
    {
      "type": "Feature",
      "id": "SRV_AE_008",
      "geometry": {
        "type": "Point",
        "coordinates": [
          -72.13499999999999,
          -18.46
        ]
      },
      "properties": {
        "service_id": "SRV_AE_008",
        "name": "Espacio Trama Pares",
        "service_type": "peer_support",
        "district_id": "DIST_VECTOR",
        "schedule": "Mon-Sat 12:00-20:00",
        "capacity": 77,
        "channels": [
          "in_person",
          "phone"
        ],
        "eligibility": "Aethera students; fictional orientation service",
        "referral_information": "student_id, preferred channel, non-clinical reason code"
      }
    },
    {
      "type": "Feature",
      "id": "SRV_AE_009",
      "geometry": {
        "type": "Point",
        "coordinates": [
          -72.11,
          -18.44
        ]
      },
      "properties": {
        "service_id": "SRV_AE_009",
        "name": "Espacio Trama Trayectoria",
        "service_type": "career_guidance",
        "district_id": "DIST_VECTOR",
        "schedule": "Mon-Fri 09:00-18:00",
        "capacity": 90,
        "channels": [
          "in_person",
          "digital"
        ],
        "eligibility": "Aethera students; fictional orientation service",
        "referral_information": "student_id, preferred channel, non-clinical reason code"
      }
    },
    {
      "type": "Feature",
      "id": "SRV_AE_010",
      "geometry": {
        "type": "Point",
        "coordinates": [
          -71.99,
          -18.37
        ]
      },
      "properties": {
        "service_id": "SRV_AE_010",
        "name": "Espacio Umbral Orientación",
        "service_type": "counseling",
        "district_id": "DIST_HORIZON",
        "schedule": "Mon-Fri 09:00-18:00",
        "capacity": 75,
        "channels": [
          "in_person",
          "digital"
        ],
        "eligibility": "Aethera students; fictional orientation service",
        "referral_information": "student_id, preferred channel, non-clinical reason code"
      }
    },
    {
      "type": "Feature",
      "id": "SRV_AE_011",
      "geometry": {
        "type": "Point",
        "coordinates": [
          -71.96499999999999,
          -18.35
        ]
      },
      "properties": {
        "service_id": "SRV_AE_011",
        "name": "Espacio Umbral Pares",
        "service_type": "peer_support",
        "district_id": "DIST_HORIZON",
        "schedule": "Mon-Sat 12:00-20:00",
        "capacity": 88,
        "channels": [
          "in_person",
          "phone"
        ],
        "eligibility": "Aethera students; fictional orientation service",
        "referral_information": "student_id, preferred channel, non-clinical reason code"
      }
    },
    {
      "type": "Feature",
      "id": "SRV_AE_012",
      "geometry": {
        "type": "Point",
        "coordinates": [
          -71.94,
          -18.330000000000002
        ]
      },
      "properties": {
        "service_id": "SRV_AE_012",
        "name": "Espacio Umbral Trayectoria",
        "service_type": "career_guidance",
        "district_id": "DIST_HORIZON",
        "schedule": "Mon-Fri 09:00-18:00",
        "capacity": 101,
        "channels": [
          "in_person",
          "digital"
        ],
        "eligibility": "Aethera students; fictional orientation service",
        "referral_information": "student_id, preferred channel, non-clinical reason code"
      }
    },
    {
      "type": "Feature",
      "id": "SRV_AE_013",
      "geometry": {
        "type": "Point",
        "coordinates": [
          -71.82,
          -18.259999999999998
        ]
      },
      "properties": {
        "service_id": "SRV_AE_013",
        "name": "Espacio Nexo Orientación",
        "service_type": "counseling",
        "district_id": "DIST_QUANTUM",
        "schedule": "Mon-Fri 09:00-18:00",
        "capacity": 86,
        "channels": [
          "in_person",
          "digital"
        ],
        "eligibility": "Aethera students; fictional orientation service",
        "referral_information": "student_id, preferred channel, non-clinical reason code"
      }
    },
    {
      "type": "Feature",
      "id": "SRV_AE_014",
      "geometry": {
        "type": "Point",
        "coordinates": [
          -71.79499999999999,
          -18.24
        ]
      },
      "properties": {
        "service_id": "SRV_AE_014",
        "name": "Espacio Nexo Pares",
        "service_type": "peer_support",
        "district_id": "DIST_QUANTUM",
        "schedule": "Mon-Sat 12:00-20:00",
        "capacity": 99,
        "channels": [
          "in_person",
          "phone"
        ],
        "eligibility": "Aethera students; fictional orientation service",
        "referral_information": "student_id, preferred channel, non-clinical reason code"
      }
    },
    {
      "type": "Feature",
      "id": "SRV_AE_015",
      "geometry": {
        "type": "Point",
        "coordinates": [
          -71.77,
          -18.22
        ]
      },
      "properties": {
        "service_id": "SRV_AE_015",
        "name": "Espacio Nexo Trayectoria",
        "service_type": "career_guidance",
        "district_id": "DIST_QUANTUM",
        "schedule": "Mon-Fri 09:00-18:00",
        "capacity": 112,
        "channels": [
          "in_person",
          "digital"
        ],
        "eligibility": "Aethera students; fictional orientation service",
        "referral_information": "student_id, preferred channel, non-clinical reason code"
      }
    }
  ]
}